[{"OBJECT_NAME":"STARLINK-2481","OBJECT_ID":"2021-027AY","EPOCH":"2026-03-09T14:15:27.294624","MEAN_MOTION":15.30220377,"ECCENTRICITY":0.0001377,"INCLINATION":53.1608,"RA_OF_ASC_NODE":168.2401,"ARG_OF_PERICENTER":84.9717,"MEAN_ANOMALY":275.1441,"EPHEMERIS_TYPE":0,"CLASSIFICATION_TYPE":"U","NORAD_CAT_ID":48138,"ELEMENT_SET_NO":999,"REV_AT_EPOCH":27246,"BSTAR":0.00052293,"MEAN_MOTION_DOT":0.0001517,"MEAN_MOTION_DDOT":0},{"OBJECT_NAME":"STRIX-4","OBJECT_ID":"2024-137A","EPOCH":"2026-03-09T15:41:49.501824","MEAN_MOTION":15.29026224,"ECCENTRICITY":0.00168396,"INCLINATION":43.0134,"RA_OF_ASC_NODE":129.8162,"ARG_OF_PERICENTER":5.2738,"MEAN_ANOMALY":354.8289,"EPHEMERIS_TYPE":0,"CLASSIFICATION_TYPE":"U","NORAD_CAT_ID":60352,"ELEMENT_SET_NO":999,"REV_AT_EPOCH":8876,"BSTAR":0.00071819834,"MEAN_MOTION_DOT":0.0002053,"MEAN_MOTION_DDOT":0}]
